[{"OBJECT_NAME":"GEESAT-6 02","OBJECT_ID":"2025-214C","EPOCH":"2026-03-09T22:45:51.302016","MEAN_MOTION":14.82997781,"ECCENTRICITY":0.00101592,"INCLINATION":49.9839,"RA_OF_ASC_NODE":48.2147,"ARG_OF_PERICENTER":195.3051,"MEAN_ANOMALY":164.7581,"EPHEMERIS_TYPE":0,"CLASSIFICATION_TYPE":"U","NORAD_CAT_ID":65714,"ELEMENT_SET_NO":999,"REV_AT_EPOCH":2477,"BSTAR":0.0003925129,"MEAN_MOTION_DOT":3.001e-5,"MEAN_MOTION_DDOT":0},{"OBJECT_NAME":"SL-14 R\/B","OBJECT_ID":"1982-092B","EPOCH":"2026-03-09T17:18:39.150144","MEAN_MOTION":14.86666366,"ECCENTRICITY":0.00190036,"INCLINATION":82.5695,"RA_OF_ASC_NODE":141.37,"ARG_OF_PERICENTER":303.44,"MEAN_ANOMALY":173.5585,"EPHEMERIS_TYPE":0,"CLASSIFICATION_TYPE":"U","NORAD_CAT_ID":13553,"ELEMENT_SET_NO":999,"REV_AT_EPOCH":32893,"BSTAR":6.0425664e-5,"MEAN_MOTION_DOT":5.62e-6,"MEAN_MOTION_DDOT":0}]
